[{"OBJECT_NAME":"OBJECT F","OBJECT_ID":"2024-092F","EPOCH":"2026-03-09T21:54:46.147104","MEAN_MOTION":15.3361444,"ECCENTRICITY":0.00086458,"INCLINATION":97.6418,"RA_OF_ASC_NODE":198.4543,"ARG_OF_PERICENTER":142.6506,"MEAN_ANOMALY":217.5339,"EPHEMERIS_TYPE":0,"CLASSIFICATION_TYPE":"U","NORAD_CAT_ID":59778,"ELEMENT_SET_NO":999,"REV_AT_EPOCH":10053,"BSTAR":0.0007914277,"MEAN_MOTION_DOT":0.00025723,"MEAN_MOTION_DDOT":0},{"OBJECT_NAME":"STARLINK-33617","OBJECT_ID":"2025-063L","EPOCH":"2026-03-09T22:26:27.259008","MEAN_MOTION":15.30210335,"ECCENTRICITY":0.0001352,"INCLINATION":53.161,"RA_OF_ASC_NODE":48.7184,"ARG_OF_PERICENTER":86.2246,"MEAN_ANOMALY":273.891,"EPHEMERIS_TYPE":0,"CLASSIFICATION_TYPE":"U","NORAD_CAT_ID":63373,"ELEMENT_SET_NO":999,"REV_AT_EPOCH":5478,"BSTAR":0.00090915593,"MEAN_MOTION_DOT":0.00026673,"MEAN_MOTION_DDOT":0}]
